OBJECT_NAME,OBJECT_ID,EPOCH,MEAN_MOTION,ECCENTRICITY,INCLINATION,RA_OF_ASC_NODE,ARG_OF_PERICENTER,MEAN_ANOMALY,EPHEMERIS_TYPE,CLASSIFICATION_TYPE,NORAD_CAT_ID,ELEMENT_SET_NO,REV_AT_EPOCH,BSTAR,MEAN_MOTION_DOT,MEAN_MOTION_DDOT
GLOBALSTAR M069,2007-020C,2026-06-13T14:03:13.597056,12.23470996,.0002416,52.0032,262.3214,140.3452,232.8824,0,U,31573,999,87836,.18536E-3,-.72E-6,0
GLOBALSTAR M072,2007-020D,2026-06-13T13:18:00.336384,11.91658502,.00014069,51.9920,109.9170,322.2382,209.7819,0,U,31574,999,87454,-.22222501E-3,-.1E-5,0
GLOBALSTAR M079,2010-054A,2026-06-13T14:20:06.135072,12.62266083,.0000632,52.0029,119.5977,15.4577,156.3092,0,U,37188,999,72209,-.57777E-4,-.114E-5,0
GLOBALSTAR M074,2010-054B,2026-06-13T14:58:11.486784,12.62268404,.0000468,52.0003,118.7824,47.5544,124.6708,0,U,37189,999,72270,-.10916E-3,-.123E-5,0
GLOBALSTAR M076,2010-054C,2026-06-13T15:35:57.307776,12.62261764,.0000657,52.0022,118.9053,38.1353,133.4747,0,U,37190,999,72242,-.59117E-4,-.114E-5,0
GLOBALSTAR M077,2010-054D,2026-06-13T19:25:51.966336,11.67547751,.0002784,51.9923,187.8693,166.5457,4.1763,0,U,37191,999,72074,.45591E-3,-.53E-6,0
GLOBALSTAR M075,2010-054E,2026-06-13T17:48:51.047136,12.62267411,.0000083,51.9919,160.6817,23.1406,147.8761,0,U,37192,999,72150,.27646E-4,-.99E-6,0
GLOBALSTAR M088,2011-033B,2026-06-13T14:46:14.854944,12.62268648,.0000764,52.0225,289.8194,121.1838,251.6203,0,U,37740,999,68804,.30875E-4,-.98E-6,0
GLOBALSTAR M085,2011-033D,2026-06-13T21:18:23.014368,12.62264087,.0000107,52.0105,203.2496,240.7016,291.2624,0,U,37742,999,68937,.16846E-3,-.74E-6,0
GLOBALSTAR M081,2011-033E,2026-06-13T20:02:21.941088,12.62264965,.000016,51.9936,205.8505,120.3766,51.2023,0,U,37743,999,68951,.18653E-3,-.7E-6,0
GLOBALSTAR M090,2011-080E,2026-06-13T18:53:31.075008,12.62269040,.0000806,52.0143,338.8054,87.1790,286.9116,0,U,38044,999,66928,.39612E-4,-.97E-6,0
GLOBALSTAR M086,2011-080F,2026-06-13T17:30:24.161184,12.62286667,.0001666,51.9914,338.9165,61.8560,310.5741,0,U,38045,999,66922,.75742E-4,-.9E-6,0
GLOBALSTAR M093,2013-005B,2026-06-13T09:56:47.977152,12.62265838,.00002353,52.0102,248.1667,102.7360,257.3533,0,U,39073,999,61638,.12048402E-3,-.82E-6,0
GLOBALSTAR M094,2013-005C,2026-06-13T17:32:45.839040,12.62268586,.000032,51.9930,161.3219,352.1063,7.9799,0,U,39074,999,61803,.72664E-6,-.104E-5,0
GLOBALSTAR M096,2013-005D,2026-06-13T19:46:11.023680,12.62265581,.0000069,52.0054,209.8399,193.9555,166.1310,0,U,39075,999,61696,.18576E-3,-.7E-6,0
GLOBALSTAR M078,2013-005E,2026-06-13T15:19:15.053088,12.62257981,.0000529,51.9890,294.4173,214.5079,145.5753,0,U,39076,999,61556,-.47637E-3,-.189E-5,0
GLOBALSTAR M095,2013-005F,2026-06-13T15:57:47.143008,12.62263353,.0000297,52.0094,291.9356,126.9917,233.0977,0,U,39077,999,61542,.22191E-5,-.103E-5,0
